[{"OBJECT_NAME":"STARLINK-2103","OBJECT_ID":"2021-005AL","EPOCH":"2026-03-09T01:58:52.385664","MEAN_MOTION":15.31044749,"ECCENTRICITY":0.00012882,"INCLINATION":53.1613,"RA_OF_ASC_NODE":17.1416,"ARG_OF_PERICENTER":95.4629,"MEAN_ANOMALY":264.6519,"EPHEMERIS_TYPE":0,"CLASSIFICATION_TYPE":"U","NORAD_CAT_ID":47383,"ELEMENT_SET_NO":999,"REV_AT_EPOCH":28362,"BSTAR":4.961347e-5,"MEAN_MOTION_DOT":1.146e-5,"MEAN_MOTION_DDOT":0},{"OBJECT_NAME":"OBJECT F","OBJECT_ID":"2024-092F","EPOCH":"2026-03-09T21:54:46.147104","MEAN_MOTION":15.3361444,"ECCENTRICITY":0.00086458,"INCLINATION":97.6418,"RA_OF_ASC_NODE":198.4543,"ARG_OF_PERICENTER":142.6506,"MEAN_ANOMALY":217.5339,"EPHEMERIS_TYPE":0,"CLASSIFICATION_TYPE":"U","NORAD_CAT_ID":59778,"ELEMENT_SET_NO":999,"REV_AT_EPOCH":10053,"BSTAR":0.0007914277,"MEAN_MOTION_DOT":0.00025723,"MEAN_MOTION_DDOT":0}]
